{
  "type": "FeatureCollection",
  "features": [
    {
      "type": "Feature",
      "properties": {
        "norad_id": 35786,
        "name": "COSMOS 2251 DEB",
        "group": "cosmos-2251-debris",
        "lat": -25.777445444785563,
        "lon": -117.9665874452939,
        "alt_km": 656.0213437261264,
        "timestamp": "2025-12-07T09:35:10.185821+00:00",
        "meta_object_name": "COSMOS 2251 DEB",
        "meta_object_id": "1993-036ASG",
        "meta_epoch": "2025-12-06T11:21:25.648992",
        "meta_mean_motion": 14.66117406,
        "meta_eccentricity": 0.00346261,
        "meta_inclination": 74.0149,
        "meta_ra_of_asc_node": 55.8624,
        "meta_arg_of_pericenter": 187.1836,
        "meta_mean_anomaly": 172.8842,
        "meta_ephemeris_type": 0,
        "meta_classification_type": "U",
        "meta_norad_cat_id": 35786,
        "meta_element_set_no": 999,
        "meta_rev_at_epoch": 73316,
        "meta_bstar": 0.0020784465,
        "meta_mean_motion_dot": 0.0001151,
        "meta_mean_motion_ddot": 0,
        "tle_line1": "1 35786U 93036ASG 25340.47321353  .00011510  00000+0  20784-2 0  9992",
        "tle_line2": "2 35786  74.0149  55.8624 0034626 187.1836 172.8842 14.66117406733169"
      },
      "geometry": {
        "type": "Point",
        "coordinates": [
          -117.9665874452939,
          -25.777445444785563
        ]
      }
    },
    {
      "type": "Feature",
      "properties": {
        "norad_id": 35789,
        "name": "COSMOS 2251 DEB",
        "group": "cosmos-2251-debris",
        "lat": 56.21176641448431,
        "lon": 88.8517981722513,
        "alt_km": 763.0080250718374,
        "timestamp": "2025-12-07T09:35:10.185831+00:00",
        "meta_object_name": "COSMOS 2251 DEB",
        "meta_object_id": "1993-036ASK",
        "meta_epoch": "2025-12-06T14:38:26.509056",
        "meta_mean_motion": 14.35977484,
        "meta_eccentricity": 0.00472063,
        "meta_inclination": 74.0392,
        "meta_ra_of_asc_node": 295.6215,
        "meta_arg_of_pericenter": 36.7286,
        "meta_mean_anomaly": 323.7086,
        "meta_ephemeris_type": 0,
        "meta_classification_type": "U",
        "meta_norad_cat_id": 35789,
        "meta_element_set_no": 999,
        "meta_rev_at_epoch": 61139,
        "meta_bstar": 0.00024671303,
        "meta_mean_motion_dot": 7e-06,
        "meta_mean_motion_ddot": 0,
        "tle_line1": "1 35789U 93036ASK 25340.61002904  .00000700  00000+0  24671-3 0  9998",
        "tle_line2": "2 35789  74.0392 295.6215 0047206  36.7286 323.7086 14.35977484611391"
      },
      "geometry": {
        "type": "Point",
        "coordinates": [
          88.8517981722513,
          56.21176641448431
        ]
      }
    },
    {
      "type": "Feature",
      "properties": {
        "norad_id": 35793,
        "name": "COSMOS 2251 DEB",
        "group": "cosmos-2251-debris",
        "lat": 67.64171031555989,
        "lon": 114.75930305777567,
        "alt_km": 626.4485122436317,
        "timestamp": "2025-12-07T09:35:10.185841+00:00",
        "meta_object_name": "COSMOS 2251 DEB",
        "meta_object_id": "1993-036ASP",
        "meta_epoch": "2025-12-06T12:11:23.448192",
        "meta_mean_motion": 14.78434964,
        "meta_eccentricity": 0.00029593,
        "meta_inclination": 74.0419,
        "meta_ra_of_asc_node": 72.4282,
        "meta_arg_of_pericenter": 145.0885,
        "meta_mean_anomaly": 226.0688,
        "meta_ephemeris_type": 0,
        "meta_classification_type": "U",
        "meta_norad_cat_id": 35793,
        "meta_element_set_no": 999,
        "meta_rev_at_epoch": 65705,
        "meta_bstar": 0.0033773366,
        "meta_mean_motion_dot": 0.00024685,
        "meta_mean_motion_ddot": 0,
        "tle_line1": "1 35793U 93036ASP 25340.50791028  .00024685  00000+0  33773-2 0  9993",
        "tle_line2": "2 35793  74.0419  72.4282 0002959 145.0885 226.0688 14.78434964657050"
      },
      "geometry": {
        "type": "Point",
        "coordinates": [
          114.75930305777567,
          67.64171031555989
        ]
      }
    },
    {
      "type": "Feature",
      "properties": {
        "norad_id": 35824,
        "name": "COSMOS 2251 DEB",
        "group": "cosmos-2251-debris",
        "lat": 22.5859919056093,
        "lon": 64.89534318657536,
        "alt_km": 1025.2788349144857,
        "timestamp": "2025-12-07T09:35:10.185851+00:00",
        "meta_object_name": "COSMOS 2251 DEB",
        "meta_object_id": "1993-036ASW",
        "meta_epoch": "2025-12-05T22:52:58.587168",
        "meta_mean_motion": 13.88379275,
        "meta_eccentricity": 0.02497807,
        "meta_inclination": 73.8463,
        "meta_ra_of_asc_node": 60.4551,
        "meta_arg_of_pericenter": 147.799,
        "meta_mean_anomaly": 213.8673,
        "meta_ephemeris_type": 0,
        "meta_classification_type": "U",
        "meta_norad_cat_id": 35824,
        "meta_element_set_no": 999,
        "meta_rev_at_epoch": 84133,
        "meta_bstar": 0.002389201,
        "meta_mean_motion_dot": 3.65e-05,
        "meta_mean_motion_ddot": 0,
        "tle_line1": "1 35824U 93036ASW 25339.95345587  .00003650  00000+0  23892-2 0  9990",
        "tle_line2": "2 35824  73.8463  60.4551 0249780 147.7990 213.8673 13.88379275841335"
      },
      "geometry": {
        "type": "Point",
        "coordinates": [
          64.89534318657536,
          22.5859919056093
        ]
      }
    },
    {
      "type": "Feature",
      "properties": {
        "norad_id": 35825,
        "name": "COSMOS 2251 DEB",
        "group": "cosmos-2251-debris",
        "lat": 18.820798877899332,
        "lon": 156.98681687275692,
        "alt_km": 1162.5580828196753,
        "timestamp": "2025-12-07T09:35:10.185862+00:00",
        "meta_object_name": "COSMOS 2251 DEB",
        "meta_object_id": "1993-036ASX",
        "meta_epoch": "2025-12-06T17:43:31.257408",
        "meta_mean_motion": 13.70908059,
        "meta_eccentricity": 0.03529553,
        "meta_inclination": 74.1125,
        "meta_ra_of_asc_node": 152.5025,
        "meta_arg_of_pericenter": 249.6557,
        "meta_mean_anomaly": 106.6316,
        "meta_ephemeris_type": 0,
        "meta_classification_type": "U",
        "meta_norad_cat_id": 35825,
        "meta_element_set_no": 999,
        "meta_rev_at_epoch": 82426,
        "meta_bstar": 0.0026115912,
        "meta_mean_motion_dot": 3.599e-05,
        "meta_mean_motion_ddot": 0,
        "tle_line1": "1 35825U 93036ASX 25340.73855622  .00003599  00000+0  26116-2 0  9999",
        "tle_line2": "2 35825  74.1125 152.5025 0352955 249.6557 106.6316 13.70908059824269"
      },
      "geometry": {
        "type": "Point",
        "coordinates": [
          156.98681687275692,
          18.820798877899332
        ]
      }
    },
    {
      "type": "Feature",
      "properties": {
        "norad_id": 35829,
        "name": "COSMOS 2251 DEB",
        "group": "cosmos-2251-debris",
        "lat": 36.89196971110294,
        "lon": 121.68721612122862,
        "alt_km": 641.9385372229863,
        "timestamp": "2025-12-07T09:35:10.185872+00:00",
        "meta_object_name": "COSMOS 2251 DEB",
        "meta_object_id": "1993-036ATB",
        "meta_epoch": "2025-12-06T15:31:06.088800",
        "meta_mean_motion": 14.76021292,
        "meta_eccentricity": 0.0006956,
        "meta_inclination": 74.0253,
        "meta_ra_of_asc_node": 110.7446,
        "meta_arg_of_pericenter": 170.0362,
        "meta_mean_anomaly": 190.0952,
        "meta_ephemeris_type": 0,
        "meta_classification_type": "U",
        "meta_norad_cat_id": 35829,
        "meta_element_set_no": 999,
        "meta_rev_at_epoch": 87685,
        "meta_bstar": 0.0039600856,
        "meta_mean_motion_dot": 0.00027375,
        "meta_mean_motion_ddot": 0,
        "tle_line1": "1 35829U 93036ATB 25340.64659825  .00027375  00000+0  39601-2 0  9991",
        "tle_line2": "2 35829  74.0253 110.7446 0006956 170.0362 190.0952 14.76021292876852"
      },
      "geometry": {
        "type": "Point",
        "coordinates": [
          121.68721612122862,
          36.89196971110294
        ]
      }
    },
    {
      "type": "Feature",
      "properties": {
        "norad_id": 35830,
        "name": "COSMOS 2251 DEB",
        "group": "cosmos-2251-debris",
        "lat": -72.94596817105091,
        "lon": 166.857927658616,
        "alt_km": 735.6202529698767,
        "timestamp": "2025-12-07T09:35:10.185882+00:00",
        "meta_object_name": "COSMOS 2251 DEB",
        "meta_object_id": "1993-036ATC",
        "meta_epoch": "2025-12-06T12:06:38.215008",
        "meta_mean_motion": 14.23927917,
        "meta_eccentricity": 0.01224789,
        "meta_inclination": 73.8624,
        "meta_ra_of_asc_node": 277.7805,
        "meta_arg_of_pericenter": 247.2482,
        "meta_mean_anomaly": 111.5683,
        "meta_ephemeris_type": 0,
        "meta_classification_type": "U",
        "meta_norad_cat_id": 35830,
        "meta_element_set_no": 999,
        "meta_rev_at_epoch": 61175,
        "meta_bstar": 0.0019622096,
        "meta_mean_motion_dot": 4.837e-05,
        "meta_mean_motion_ddot": 0,
        "tle_line1": "1 35830U 93036ATC 25340.50460897  .00004837  00000+0  19622-2 0  9996",
        "tle_line2": "2 35830  73.8624 277.7805 0122478 247.2482 111.5683 14.23927917611750"
      },
      "geometry": {
        "type": "Point",
        "coordinates": [
          166.857927658616,
          -72.94596817105091
        ]
      }
    }
  ]
}